CCSDS_OMM_VERS = 2.0
CREATION_DATE  = 
ORIGINATOR     = 

OBJECT_NAME    = SL-14 R/B
OBJECT_ID      = 1991-042B
CENTER_NAME    = EARTH
REF_FRAME      = TEME
TIME_SYSTEM    = UTC
MEAN_ELEMENT_THEORY = SGP/SGP4

EPOCH          = 2026-02-21T11:36:51.602112
MEAN_MOTION    = 14.81811647
ECCENTRICITY   = .0015673
INCLINATION    = 82.4896
RA_OF_ASC_NODE = 235.3812
ARG_OF_PERICENTER = 296.7844
MEAN_ANOMALY   = 63.1766

EPHEMERIS_TYPE = 0
CLASSIFICATION_TYPE = U
NORAD_CAT_ID   = 21423
ELEMENT_SET_NO = 999
REV_AT_EPOCH   = 85067
BSTAR          = .46931E-4
MEAN_MOTION_DOT = .394E-5
MEAN_MOTION_DDOT = 0

CCSDS_OMM_VERS = 2.0
CREATION_DATE  = 
ORIGINATOR     = 

OBJECT_NAME    = ERS-1
OBJECT_ID      = 1991-050A
CENTER_NAME    = EARTH
REF_FRAME      = TEME
TIME_SYSTEM    = UTC
MEAN_ELEMENT_THEORY = SGP/SGP4

EPOCH          = 2026-02-21T12:01:43.183200
MEAN_MOTION    = 14.39435260
ECCENTRICITY   = .0030951
INCLINATION    = 98.7892
RA_OF_ASC_NODE = 70.3286
ARG_OF_PERICENTER = 249.6296
MEAN_ANOMALY   = 110.1565

EPHEMERIS_TYPE = 0
CLASSIFICATION_TYPE = U
NORAD_CAT_ID   = 21574
ELEMENT_SET_NO = 999
REV_AT_EPOCH   = 81340
BSTAR          = .98555E-4
MEAN_MOTION_DOT = .262E-5
MEAN_MOTION_DDOT = 0

CCSDS_OMM_VERS = 2.0
CREATION_DATE  = 
ORIGINATOR     = 

OBJECT_NAME    = ARIANE 40 R/B
OBJECT_ID      = 1991-050F
CENTER_NAME    = EARTH
REF_FRAME      = TEME
TIME_SYSTEM    = UTC
MEAN_ELEMENT_THEORY = SGP/SGP4

EPOCH          = 2026-02-21T02:31:31.414080
MEAN_MOTION    = 14.42880394
ECCENTRICITY   = .00042666
INCLINATION    = 98.2050
RA_OF_ASC_NODE = 104.9612
ARG_OF_PERICENTER = 117.4953
MEAN_ANOMALY   = 242.6672

EPHEMERIS_TYPE = 0
CLASSIFICATION_TYPE = U
NORAD_CAT_ID   = 21610
ELEMENT_SET_NO = 999
REV_AT_EPOCH   = 81660
BSTAR          = .85059522E-4
MEAN_MOTION_DOT = .242E-5
MEAN_MOTION_DDOT = 0

CCSDS_OMM_VERS = 2.0
CREATION_DATE  = 
ORIGINATOR     = 

OBJECT_NAME    = INTERCOSMOS 25
OBJECT_ID      = 1991-086A
CENTER_NAME    = EARTH
REF_FRAME      = TEME
TIME_SYSTEM    = UTC
MEAN_ELEMENT_THEORY = SGP/SGP4

EPOCH          = 2026-02-21T05:28:59.542752
MEAN_MOTION    = 12.11949312
ECCENTRICITY   = .1487023
INCLINATION    = 82.6078
RA_OF_ASC_NODE = 319.9559
ARG_OF_PERICENTER = 152.3917
MEAN_ANOMALY   = 216.4872

EPHEMERIS_TYPE = 0
CLASSIFICATION_TYPE = U
NORAD_CAT_ID   = 21819
ELEMENT_SET_NO = 999
REV_AT_EPOCH   = 49469
BSTAR          = .16354E-3
MEAN_MOTION_DOT = .863E-5
MEAN_MOTION_DDOT = 0

CCSDS_OMM_VERS = 2.0
CREATION_DATE  = 
ORIGINATOR     = 

OBJECT_NAME    = SL-8 R/B
OBJECT_ID      = 1992-008B
CENTER_NAME    = EARTH
REF_FRAME      = TEME
TIME_SYSTEM    = UTC
MEAN_ELEMENT_THEORY = SGP/SGP4

EPOCH          = 2026-02-21T03:40:40.181376
MEAN_MOTION    = 13.75970056
ECCENTRICITY   = .00346169
INCLINATION    = 82.9243
RA_OF_ASC_NODE = 280.0817
ARG_OF_PERICENTER = 178.7705
MEAN_ANOMALY   = 296.3909

EPHEMERIS_TYPE = 0
CLASSIFICATION_TYPE = U
NORAD_CAT_ID   = 21876
ELEMENT_SET_NO = 999
REV_AT_EPOCH   = 70714
BSTAR          = .3572824E-5
MEAN_MOTION_DOT = .19E-6
MEAN_MOTION_DDOT = 0

CCSDS_OMM_VERS = 2.0
CREATION_DATE  = 
ORIGINATOR     = 

OBJECT_NAME    = SL-8 R/B
OBJECT_ID      = 1992-020B
CENTER_NAME    = EARTH
REF_FRAME      = TEME
TIME_SYSTEM    = UTC
MEAN_ELEMENT_THEORY = SGP/SGP4

EPOCH          = 2026-02-21T07:46:58.952352
MEAN_MOTION    = 13.75547318
ECCENTRICITY   = .0028443
INCLINATION    = 82.9342
RA_OF_ASC_NODE = 165.9083
ARG_OF_PERICENTER = 346.0083
MEAN_ANOMALY   = 67.2486

EPHEMERIS_TYPE = 0
CLASSIFICATION_TYPE = U
NORAD_CAT_ID   = 21938
ELEMENT_SET_NO = 999
REV_AT_EPOCH   = 69888
BSTAR          = .86192E-4
MEAN_MOTION_DOT = .98E-6
MEAN_MOTION_DDOT = 0

CCSDS_OMM_VERS = 2.0
CREATION_DATE  = 
ORIGINATOR     = 

OBJECT_NAME    = USA 81
OBJECT_ID      = 1992-023A
CENTER_NAME    = EARTH
REF_FRAME      = TEME
TIME_SYSTEM    = UTC
MEAN_ELEMENT_THEORY = SGP/SGP4

EPOCH          = 2026-02-21T07:29:22.227648
MEAN_MOTION    = 14.32361843
ECCENTRICITY   = .0002744
INCLINATION    = 85.0114
RA_OF_ASC_NODE = 140.8863
ARG_OF_PERICENTER = 92.6211
MEAN_ANOMALY   = 267.5295

EPHEMERIS_TYPE = 0
CLASSIFICATION_TYPE = U
NORAD_CAT_ID   = 21949
ELEMENT_SET_NO = 999
REV_AT_EPOCH   = 9244
BSTAR          = .61856E-4
MEAN_MOTION_DOT = .187E-5
MEAN_MOTION_DDOT = 0

CCSDS_OMM_VERS = 2.0
CREATION_DATE  = 
ORIGINATOR     = 

OBJECT_NAME    = COSMOS 2219
OBJECT_ID      = 1992-076A
CENTER_NAME    = EARTH
REF_FRAME      = TEME
TIME_SYSTEM    = UTC
MEAN_ELEMENT_THEORY = SGP/SGP4

EPOCH          = 2026-02-21T09:25:26.971392
MEAN_MOTION    = 14.14081091
ECCENTRICITY   = .001975
INCLINATION    = 71.0590
RA_OF_ASC_NODE = 52.1365
ARG_OF_PERICENTER = 228.8868
MEAN_ANOMALY   = 131.0550

EPHEMERIS_TYPE = 0
CLASSIFICATION_TYPE = U
NORAD_CAT_ID   = 22219
ELEMENT_SET_NO = 999
REV_AT_EPOCH   = 71607
BSTAR          = .18523E-3
MEAN_MOTION_DOT = .306E-5
MEAN_MOTION_DDOT = 0

CCSDS_OMM_VERS = 2.0
CREATION_DATE  = 
ORIGINATOR     = 

OBJECT_NAME    = SL-16 R/B
OBJECT_ID      = 1992-076B
CENTER_NAME    = EARTH
REF_FRAME      = TEME
TIME_SYSTEM    = UTC
MEAN_ELEMENT_THEORY = SGP/SGP4

EPOCH          = 2026-02-21T10:52:00.280128
MEAN_MOTION    = 14.16854892
ECCENTRICITY   = .0011081
INCLINATION    = 70.9978
RA_OF_ASC_NODE = 222.5752
ARG_OF_PERICENTER = 126.2663
MEAN_ANOMALY   = 265.0692

EPHEMERIS_TYPE = 0
CLASSIFICATION_TYPE = U
NORAD_CAT_ID   = 22220
ELEMENT_SET_NO = 999
REV_AT_EPOCH   = 71953
BSTAR          = .58352E-4
MEAN_MOTION_DOT = .69E-6
MEAN_MOTION_DDOT = 0

CCSDS_OMM_VERS = 2.0
CREATION_DATE  = 
ORIGINATOR     = 

OBJECT_NAME    = COSMOS 2221
OBJECT_ID      = 1992-080A
CENTER_NAME    = EARTH
REF_FRAME      = TEME
TIME_SYSTEM    = UTC
MEAN_ELEMENT_THEORY = SGP/SGP4

EPOCH          = 2026-02-21T04:26:27.212352
MEAN_MOTION    = 14.96132448
ECCENTRICITY   = .001291
INCLINATION    = 82.5036
RA_OF_ASC_NODE = 294.8905
ARG_OF_PERICENTER = 246.7139
MEAN_ANOMALY   = 113.2725

EPHEMERIS_TYPE = 0
CLASSIFICATION_TYPE = U
NORAD_CAT_ID   = 22236
ELEMENT_SET_NO = 999
REV_AT_EPOCH   = 77832
BSTAR          = .14058E-3
MEAN_MOTION_DOT = .1609E-4
MEAN_MOTION_DDOT = 0

CCSDS_OMM_VERS = 2.0
CREATION_DATE  = 
ORIGINATOR     = 

OBJECT_NAME    = SL-16 R/B
OBJECT_ID      = 1992-093B
CENTER_NAME    = EARTH
REF_FRAME      = TEME
TIME_SYSTEM    = UTC
MEAN_ELEMENT_THEORY = SGP/SGP4

EPOCH          = 2026-02-21T09:57:10.935360
MEAN_MOTION    = 14.15447043
ECCENTRICITY   = .0005726
INCLINATION    = 71.0218
RA_OF_ASC_NODE = 38.4305
ARG_OF_PERICENTER = 311.1482
MEAN_ANOMALY   = 48.9146

EPHEMERIS_TYPE = 0
CLASSIFICATION_TYPE = U
NORAD_CAT_ID   = 22285
ELEMENT_SET_NO = 999
REV_AT_EPOCH   = 71085
BSTAR          = .16388E-3
MEAN_MOTION_DOT = .272E-5
MEAN_MOTION_DDOT = 0

CCSDS_OMM_VERS = 2.0
CREATION_DATE  = 
ORIGINATOR     = 

OBJECT_NAME    = COSMOS 2228
OBJECT_ID      = 1992-094A
CENTER_NAME    = EARTH
REF_FRAME      = TEME
TIME_SYSTEM    = UTC
MEAN_ELEMENT_THEORY = SGP/SGP4

EPOCH          = 2026-02-21T11:30:35.787168
MEAN_MOTION    = 14.97105351
ECCENTRICITY   = .0018033
INCLINATION    = 82.5145
RA_OF_ASC_NODE = 252.8340
ARG_OF_PERICENTER = 1.1751
MEAN_ANOMALY   = 358.9510

EPHEMERIS_TYPE = 0
CLASSIFICATION_TYPE = U
NORAD_CAT_ID   = 22286
ELEMENT_SET_NO = 999
REV_AT_EPOCH   = 77363
BSTAR          = .15053E-3
MEAN_MOTION_DOT = .1768E-4
MEAN_MOTION_DDOT = 0

